{
  "type": "FeatureCollection",
  "features": [
    {
      "type": "Feature",
      "id": 1,
      "geometry": {
        "type": "Point",
        "coordinates": [
          40.343197,
          47.318707
        ]
      },
      "properties": {
        "time": "132910"
      }
    },
    {
      "type": "Feature",
      "id": 2,
      "geometry": {
        "type": "Point",
        "coordinates": [
          40.342171,
          47.317993
        ]
      },
      "properties": {
        "time": "132911"
      }
    },
    {
      "type": "Feature",
      "id": 3,
      "geometry": {
        "type": "Point",
        "coordinates": [
          40.342171,
          47.317993
        ]
      },
      "properties": {
        "time": "132912"
      }
    },
    {
      "type": "Feature",
      "id": 4,
      "geometry": {
        "type": "Point",
        "coordinates": [
          40.342171,
          47.317993
        ]
      },
      "properties": {
        "time": "132913"
      }
    },
    {
      "type": "Feature",
      "id": 5,
      "geometry": {
        "type": "Point",
        "coordinates": [
          40.547665,
          47.27306
        ]
      },
      "properties": {
        "time": "132914"
      }
    },
    {
      "type": "Feature",
      "id": 6,
      "geometry": {
        "type": "Point",
        "coordinates": [
          40.552479,
          47.27507
        ]
      },
      "properties": {
        "time": "132915"
      }
    },
    {
      "type": "Feature",
      "id": 7,
      "geometry": {
        "type": "Point",
        "coordinates": [
          40.557243,
          47.277252
        ]
      },
      "properties": {
        "time": "132916"
      }
    },
    {
      "type": "Feature",
      "id": 8,
      "geometry": {
        "type": "Point",
        "coordinates": [
          40.561871,
          47.279495
        ]
      },
      "properties": {
        "time": "132917"
      }
    },
    {
      "type": "Feature",
      "id": 9,
      "geometry": {
        "type": "Point",
        "coordinates": [
          40.566311,
          47.282146
        ]
      },
      "properties": {
        "time": "132918"
      }
    },
    {
      "type": "Feature",
      "id": 10,
      "geometry": {
        "type": "Point",
        "coordinates": [
          40.570667,
          47.284824
        ]
      },
      "properties": {
        "time": "132919"
      }
    },
    {
      "type": "Feature",
      "id": 11,
      "geometry": {
        "type": "Point",
        "coordinates": [
          40.574757,
          47.287838
        ]
      },
      "properties": {
        "time": "132920"
      }
    },
    {
      "type": "Feature",
      "id": 12,
      "geometry": {
        "type": "Point",
        "coordinates": [
          40.57917,
          47.291126
        ]
      },
      "properties": {
        "time": "132921"
      }
    },
    {
      "type": "Feature",
      "id": 13,
      "geometry": {
        "type": "Point",
        "coordinates": [
          40.583302,
          47.294392
        ]
      },
      "properties": {
        "time": "132922"
      }
    },
    {
      "type": "Feature",
      "id": 14,
      "geometry": {
        "type": "Point",
        "coordinates": [
          40.587147,
          47.297729
        ]
      },
      "properties": {
        "time": "132923"
      }
    },
    {
      "type": "Feature",
      "id": 15,
      "geometry": {
        "type": "Point",
        "coordinates": [
          40.590973,
          47.301376
        ]
      },
      "properties": {
        "time": "132924"
      }
    },
    {
      "type": "Feature",
      "id": 16,
      "geometry": {
        "type": "Point",
        "coordinates": [
          40.5947,
          47.305271
        ]
      },
      "properties": {
        "time": "132925"
      }
    },
    {
      "type": "Feature",
      "id": 17,
      "geometry": {
        "type": "Point",
        "coordinates": [
          40.59803,
          47.309082
        ]
      },
      "properties": {
        "time": "132926"
      }
    },
    {
      "type": "Feature",
      "id": 18,
      "geometry": {
        "type": "Point",
        "coordinates": [
          40.601048,
          47.312977
        ]
      },
      "properties": {
        "time": "132927"
      }
    },
    {
      "type": "Feature",
      "id": 19,
      "geometry": {
        "type": "Point",
        "coordinates": [
          40.603657,
          47.316814
        ]
      },
      "properties": {
        "time": "132928"
      }
    },
    {
      "type": "Feature",
      "id": 20,
      "geometry": {
        "type": "Point",
        "coordinates": [
          40.605858,
          47.320827
        ]
      },
      "properties": {
        "time": "132929"
      }
    },
    {
      "type": "Feature",
      "id": 21,
      "geometry": {
        "type": "Point",
        "coordinates": [
          40.607918,
          47.324856
        ]
      },
      "properties": {
        "time": "132930"
      }
    },
    {
      "type": "Feature",
      "id": 22,
      "geometry": {
        "type": "Point",
        "coordinates": [
          40.609665,
          47.328911
        ]
      },
      "properties": {
        "time": "132931"
      }
    },
    {
      "type": "Feature",
      "id": 23,
      "geometry": {
        "type": "Point",
        "coordinates": [
          40.611214,
          47.333012
        ]
      },
      "properties": {
        "time": "132932"
      }
    },
    {
      "type": "Feature",
      "id": 24,
      "geometry": {
        "type": "Point",
        "coordinates": [
          40.612431,
          47.337124
        ]
      },
      "properties": {
        "time": "132933"
      }
    },
    {
      "type": "Feature",
      "id": 25,
      "geometry": {
        "type": "Point",
        "coordinates": [
          40.613392,
          47.341263
        ]
      },
      "properties": {
        "time": "132934"
      }
    },
    {
      "type": "Feature",
      "id": 26,
      "geometry": {
        "type": "Point",
        "coordinates": [
          40.613964,
          47.345348
        ]
      },
      "properties": {
        "time": "132935"
      }
    },
    {
      "type": "Feature",
      "id": 27,
      "geometry": {
        "type": "Point",
        "coordinates": [
          40.614368,
          47.34948
        ]
      },
      "properties": {
        "time": "132936"
      }
    },
    {
      "type": "Feature",
      "id": 28,
      "geometry": {
        "type": "Point",
        "coordinates": [
          40.614792,
          47.353683
        ]
      },
      "properties": {
        "time": "132937"
      }
    },
    {
      "type": "Feature",
      "id": 29,
      "geometry": {
        "type": "Point",
        "coordinates": [
          40.614647,
          47.35778
        ]
      },
      "properties": {
        "time": "132938"
      }
    },
    {
      "type": "Feature",
      "id": 30,
      "geometry": {
        "type": "Point",
        "coordinates": [
          40.614143,
          47.361923
        ]
      },
      "properties": {
        "time": "132939"
      }
    },
    {
      "type": "Feature",
      "id": 31,
      "geometry": {
        "type": "Point",
        "coordinates": [
          40.613529,
          47.366066
        ]
      },
      "properties": {
        "time": "132940"
      }
    },
    {
      "type": "Feature",
      "id": 32,
      "geometry": {
        "type": "Point",
        "coordinates": [
          40.612797,
          47.370232
        ]
      },
      "properties": {
        "time": "132941"
      }
    },
    {
      "type": "Feature",
      "id": 33,
      "geometry": {
        "type": "Point",
        "coordinates": [
          40.613655,
          47.373844
        ]
      },
      "properties": {
        "time": "132942"
      }
    },
    {
      "type": "Feature",
      "id": 34,
      "geometry": {
        "type": "Point",
        "coordinates": [
          40.61182,
          47.377762
        ]
      },
      "properties": {
        "time": "132943"
      }
    },
    {
      "type": "Feature",
      "id": 35,
      "geometry": {
        "type": "Point",
        "coordinates": [
          40.609852,
          47.381683
        ]
      },
      "properties": {
        "time": "132944"
      }
    },
    {
      "type": "Feature",
      "id": 36,
      "geometry": {
        "type": "Point",
        "coordinates": [
          40.607613,
          47.385525
        ]
      },
      "properties": {
        "time": "132945"
      }
    },
    {
      "type": "Feature",
      "id": 37,
      "geometry": {
        "type": "Point",
        "coordinates": [
          40.605118,
          47.389297
        ]
      },
      "properties": {
        "time": "132946"
      }
    },
    {
      "type": "Feature",
      "id": 38,
      "geometry": {
        "type": "Point",
        "coordinates": [
          40.602356,
          47.39299
        ]
      },
      "properties": {
        "time": "132947"
      }
    },
    {
      "type": "Feature",
      "id": 39,
      "geometry": {
        "type": "Point",
        "coordinates": [
          40.599346,
          47.396584
        ]
      },
      "properties": {
        "time": "132948"
      }
    },
    {
      "type": "Feature",
      "id": 40,
      "geometry": {
        "type": "Point",
        "coordinates": [
          40.596085,
          47.400078
        ]
      },
      "properties": {
        "time": "132949"
      }
    },
    {
      "type": "Feature",
      "id": 41,
      "geometry": {
        "type": "Point",
        "coordinates": [
          40.592571,
          47.403461
        ]
      },
      "properties": {
        "time": "132950"
      }
    },
    {
      "type": "Feature",
      "id": 42,
      "geometry": {
        "type": "Point",
        "coordinates": [
          40.588837,
          47.406731
        ]
      },
      "properties": {
        "time": "132951"
      }
    },
    {
      "type": "Feature",
      "id": 43,
      "geometry": {
        "type": "Point",
        "coordinates": [
          40.584873,
          47.409878
        ]
      },
      "properties": {
        "time": "132952"
      }
    },
    {
      "type": "Feature",
      "id": 44,
      "geometry": {
        "type": "Point",
        "coordinates": [
          40.5807,
          47.412891
        ]
      },
      "properties": {
        "time": "132953"
      }
    },
    {
      "type": "Feature",
      "id": 45,
      "geometry": {
        "type": "Point",
        "coordinates": [
          40.576328,
          47.415771
        ]
      },
      "properties": {
        "time": "132954"
      }
    },
    {
      "type": "Feature",
      "id": 46,
      "geometry": {
        "type": "Point",
        "coordinates": [
          40.571762,
          47.41851
        ]
      },
      "properties": {
        "time": "132955"
      }
    },
    {
      "type": "Feature",
      "id": 47,
      "geometry": {
        "type": "Point",
        "coordinates": [
          40.567017,
          47.421097
        ]
      },
      "properties": {
        "time": "132956"
      }
    },
    {
      "type": "Feature",
      "id": 48,
      "geometry": {
        "type": "Point",
        "coordinates": [
          40.562092,
          47.423531
        ]
      },
      "properties": {
        "time": "132957"
      }
    },
    {
      "type": "Feature",
      "id": 49,
      "geometry": {
        "type": "Point",
        "coordinates": [
          40.557007,
          47.4258
        ]
      },
      "properties": {
        "time": "132958"
      }
    },
    {
      "type": "Feature",
      "id": 50,
      "geometry": {
        "type": "Point",
        "coordinates": [
          40.55175,
          47.42791
        ]
      },
      "properties": {
        "time": "132959"
      }
    },
    {
      "type": "Feature",
      "id": 51,
      "geometry": {
        "type": "Point",
        "coordinates": [
          40.54636,
          47.429844
        ]
      },
      "properties": {
        "time": "132960"
      }
    },
    {
      "type": "Feature",
      "id": 52,
      "geometry": {
        "type": "Point",
        "coordinates": [
          40.540844,
          47.431602
        ]
      },
      "properties": {
        "time": "132961"
      }
    },
    {
      "type": "Feature",
      "id": 53,
      "geometry": {
        "type": "Point",
        "coordinates": [
          40.535213,
          47.433189
        ]
      },
      "properties": {
        "time": "132962"
      }
    },
    {
      "type": "Feature",
      "id": 54,
      "geometry": {
        "type": "Point",
        "coordinates": [
          40.529476,
          47.434593
        ]
      },
      "properties": {
        "time": "132963"
      }
    },
    {
      "type": "Feature",
      "id": 55,
      "geometry": {
        "type": "Point",
        "coordinates": [
          40.52367,
          47.435814
        ]
      },
      "properties": {
        "time": "132964"
      }
    },
    {
      "type": "Feature",
      "id": 56,
      "geometry": {
        "type": "Point",
        "coordinates": [
          40.517776,
          47.43684
        ]
      },
      "properties": {
        "time": "132965"
      }
    },
    {
      "type": "Feature",
      "id": 57,
      "geometry": {
        "type": "Point",
        "coordinates": [
          40.511806,
          47.437683
        ]
      },
      "properties": {
        "time": "132966"
      }
    },
    {
      "type": "Feature",
      "id": 58,
      "geometry": {
        "type": "Point",
        "coordinates": [
          40.505779,
          47.438324
        ]
      },
      "properties": {
        "time": "132967"
      }
    },
    {
      "type": "Feature",
      "id": 59,
      "geometry": {
        "type": "Point",
        "coordinates": [
          40.499725,
          47.438786
        ]
      },
      "properties": {
        "time": "132968"
      }
    },
    {
      "type": "Feature",
      "id": 60,
      "geometry": {
        "type": "Point",
        "coordinates": [
          40.493614,
          47.439045
        ]
      },
      "properties": {
        "time": "132969"
      }
    },
    {
      "type": "Feature",
      "id": 61,
      "geometry": {
        "type": "Point",
        "coordinates": [
          40.487522,
          47.439125
        ]
      },
      "properties": {
        "time": "132970"
      }
    },
    {
      "type": "Feature",
      "id": 62,
      "geometry": {
        "type": "Point",
        "coordinates": [
          40.481422,
          47.438992
        ]
      },
      "properties": {
        "time": "132971"
      }
    },
    {
      "type": "Feature",
      "id": 63,
      "geometry": {
        "type": "Point",
        "coordinates": [
          40.478378,
          47.438869
        ]
      },
      "properties": {
        "time": "132972"
      }
    },
    {
      "type": "Feature",
      "id": 64,
      "geometry": {
        "type": "Point",
        "coordinates": [
          40.471672,
          47.438576
        ]
      },
      "properties": {
        "time": "132973"
      }
    },
    {
      "type": "Feature",
      "id": 65,
      "geometry": {
        "type": "Point",
        "coordinates": [
          40.471672,
          47.438576
        ]
      },
      "properties": {
        "time": "132974"
      }
    },
    {
      "type": "Feature",
      "id": 66,
      "geometry": {
        "type": "Point",
        "coordinates": [
          40.471672,
          47.438576
        ]
      },
      "properties": {
        "time": "132975"
      }
    },
    {
      "type": "Feature",
      "id": 67,
      "geometry": {
        "type": "Point",
        "coordinates": [
          40.471672,
          47.438576
        ]
      },
      "properties": {
        "time": "132976"
      }
    },
    {
      "type": "Feature",
      "id": 68,
      "geometry": {
        "type": "Point",
        "coordinates": [
          40.330082,
          47.357742
        ]
      },
      "properties": {
        "time": "132977"
      }
    },
    {
      "type": "Feature",
      "id": 69,
      "geometry": {
        "type": "Point",
        "coordinates": [
          40.330444,
          47.357922
        ]
      },
      "properties": {
        "time": "132978"
      }
    },
    {
      "type": "Feature",
      "id": 70,
      "geometry": {
        "type": "Point",
        "coordinates": [
          40.33049,
          47.357975
        ]
      },
      "properties": {
        "time": "132979"
      }
    },
    {
      "type": "Feature",
      "id": 71,
      "geometry": {
        "type": "Point",
        "coordinates": [
          40.330208,
          47.355701
        ]
      },
      "properties": {
        "time": "132980"
      }
    },
    {
      "type": "Feature",
      "id": 0,
      "geometry": {
        "type": "LineString",
        "coordinates": [
          [
            40.343197,
            47.318707
          ],
          [
            40.342171,
            47.317993
          ],
          [
            40.342171,
            47.317993
          ],
          [
            40.342171,
            47.317993
          ],
          [
            40.547665,
            47.27306
          ],
          [
            40.552479,
            47.27507
          ],
          [
            40.557243,
            47.277252
          ],
          [
            40.561871,
            47.279495
          ],
          [
            40.566311,
            47.282146
          ],
          [
            40.570667,
            47.284824
          ],
          [
            40.574757,
            47.287838
          ],
          [
            40.57917,
            47.291126
          ],
          [
            40.583302,
            47.294392
          ],
          [
            40.587147,
            47.297729
          ],
          [
            40.590973,
            47.301376
          ],
          [
            40.5947,
            47.305271
          ],
          [
            40.59803,
            47.309082
          ],
          [
            40.601048,
            47.312977
          ],
          [
            40.603657,
            47.316814
          ],
          [
            40.605858,
            47.320827
          ],
          [
            40.607918,
            47.324856
          ],
          [
            40.609665,
            47.328911
          ],
          [
            40.611214,
            47.333012
          ],
          [
            40.612431,
            47.337124
          ],
          [
            40.613392,
            47.341263
          ],
          [
            40.613964,
            47.345348
          ],
          [
            40.614368,
            47.34948
          ],
          [
            40.614792,
            47.353683
          ],
          [
            40.614647,
            47.35778
          ],
          [
            40.614143,
            47.361923
          ],
          [
            40.613529,
            47.366066
          ],
          [
            40.612797,
            47.370232
          ],
          [
            40.613655,
            47.373844
          ],
          [
            40.61182,
            47.377762
          ],
          [
            40.609852,
            47.381683
          ],
          [
            40.607613,
            47.385525
          ],
          [
            40.605118,
            47.389297
          ],
          [
            40.602356,
            47.39299
          ],
          [
            40.599346,
            47.396584
          ],
          [
            40.596085,
            47.400078
          ],
          [
            40.592571,
            47.403461
          ],
          [
            40.588837,
            47.406731
          ],
          [
            40.584873,
            47.409878
          ],
          [
            40.5807,
            47.412891
          ],
          [
            40.576328,
            47.415771
          ],
          [
            40.571762,
            47.41851
          ],
          [
            40.567017,
            47.421097
          ],
          [
            40.562092,
            47.423531
          ],
          [
            40.557007,
            47.4258
          ],
          [
            40.55175,
            47.42791
          ],
          [
            40.54636,
            47.429844
          ],
          [
            40.540844,
            47.431602
          ],
          [
            40.535213,
            47.433189
          ],
          [
            40.529476,
            47.434593
          ],
          [
            40.52367,
            47.435814
          ],
          [
            40.517776,
            47.43684
          ],
          [
            40.511806,
            47.437683
          ],
          [
            40.505779,
            47.438324
          ],
          [
            40.499725,
            47.438786
          ],
          [
            40.493614,
            47.439045
          ],
          [
            40.487522,
            47.439125
          ],
          [
            40.481422,
            47.438992
          ],
          [
            40.478378,
            47.438869
          ],
          [
            40.471672,
            47.438576
          ],
          [
            40.471672,
            47.438576
          ],
          [
            40.471672,
            47.438576
          ],
          [
            40.471672,
            47.438576
          ],
          [
            40.330082,
            47.357742
          ],
          [
            40.330444,
            47.357922
          ],
          [
            40.33049,
            47.357975
          ],
          [
            40.330208,
            47.355701
          ]
        ]
      },
      "properties": {}
    },
    {
      "type": "Feature",
      "id": 0,
      "geometry": {
        "type": "LineString",
        "coordinates": []
      },
      "properties": {}
    }
  ]
}